{
    "links": {
        "self": "http://www.neowsapp.com/rest/v1/neo/3717073?api_key=iIulBulltgU6a56xZRHN4H3l9WmuAYTsLGpBGhQ2"
    },
    "id": "3717073",
    "neo_reference_id": "3717073",
    "name": "(2015 DO224)",
    "designation": "2015 DO224",
    "nasa_jpl_url": "http://ssd.jpl.nasa.gov/sbdb.cgi?sstr=3717073",
    "absolute_magnitude_h": 22.8,
    "estimated_diameter": {
        "kilometers": {
            "estimated_diameter_min": 0.0732073989,
            "estimated_diameter_max": 0.1636967205
        },
        "meters": {
            "estimated_diameter_min": 73.2073989347,
            "estimated_diameter_max": 163.696720474
        },
        "miles": {
            "estimated_diameter_min": 0.0454889547,
            "estimated_diameter_max": 0.1017163949
        },
        "feet": {
            "estimated_diameter_min": 240.181762721,
            "estimated_diameter_max": 537.0627483999
        }
    },
    "is_potentially_hazardous_asteroid": false,
    "close_approach_data": [
        {
            "close_approach_date": "2015-03-25",
            "close_approach_date_full": "2015-Mar-25 20:59",
            "epoch_date_close_approach": 1427317140000,
            "relative_velocity": {
                "kilometers_per_second": "8.3310604085",
                "kilometers_per_hour": "29991.8174707281",
                "miles_per_hour": "18635.7490278532"
            },
            "miss_distance": {
                "astronomical": "0.1635751805",
                "lunar": "63.6307452145",
                "kilometers": "24470498.587665535",
                "miles": "15205262.744972983"
            },
            "orbiting_body": "Earth"
        }
    ],
    "orbital_data": {
        "orbit_id": "4",
        "orbit_determination_date": "2019-07-11 06:08:33",
        "first_observation_date": "2015-02-15",
        "last_observation_date": "2015-02-17",
        "data_arc_in_days": 2,
        "observations_used": 17,
        "orbit_uncertainty": "9",
        "minimum_orbit_intersection": ".135327",
        "jupiter_tisserand_invariant": "3.581",
        "epoch_osculation": "2457069.5",
        "eccentricity": ".480973290665541",
        "semi_major_axis": "2.10111604282128",
        "inclination": "7.50091671254722",
        "ascending_node_longitude": "330.3988510611409",
        "orbital_period": "1112.432030311791",
        "perihelion_distance": "1.090535345635369",
        "perihelion_argument": "234.8367396371037",
        "aphelion_distance": "3.111696740007191",
        "perihelion_time": "2457122.152317932464",
        "mean_anomaly": "342.9609055302242",
        "mean_motion": ".3236152773298875",
        "equinox": "J2000",
        "orbit_class": {
            "orbit_class_type": "AMO",
            "orbit_class_description": "Near-Earth asteroid orbits similar to that of 1221 Amor",
            "orbit_class_range": "1.017 AU < q (perihelion) < 1.3 AU"
        }
    },
    "is_sentry_object": false
}